STARLINK-34383          
1 64305U 25123Q   26068.75887767  .00004290  00000+0  36700-3 0  9991
2 64305  70.0020 194.4863 0003214 268.2576  91.8215 14.98337644 41628
KOMPSAT-7               
1 66820U 25279A   26068.87103100  .00004022  00000+0  31599-3 0  9996
2 66820  97.6738  18.4558 0009895 343.5135  16.5766 15.01421798 14723
