[{"OBJECT_NAME":"STARLINK-34383","OBJECT_ID":"2025-123Q","EPOCH":"2026-03-09T18:12:47.031552","MEAN_MOTION":14.98337644,"ECCENTRICITY":0.00032135,"INCLINATION":70.002,"RA_OF_ASC_NODE":194.4863,"ARG_OF_PERICENTER":268.2576,"MEAN_ANOMALY":91.8215,"EPHEMERIS_TYPE":0,"CLASSIFICATION_TYPE":"U","NORAD_CAT_ID":64305,"ELEMENT_SET_NO":999,"REV_AT_EPOCH":4162,"BSTAR":0.00036699534,"MEAN_MOTION_DOT":4.29e-5,"MEAN_MOTION_DDOT":0},{"OBJECT_NAME":"KOMPSAT-7","OBJECT_ID":"2025-279A","EPOCH":"2026-03-09T20:54:17.078400","MEAN_MOTION":15.01421798,"ECCENTRICITY":0.00098953,"INCLINATION":97.6738,"RA_OF_ASC_NODE":18.4558,"ARG_OF_PERICENTER":343.5135,"MEAN_ANOMALY":16.5766,"EPHEMERIS_TYPE":0,"CLASSIFICATION_TYPE":"U","NORAD_CAT_ID":66820,"ELEMENT_SET_NO":999,"REV_AT_EPOCH":1472,"BSTAR":0.00031598708,"MEAN_MOTION_DOT":4.022e-5,"MEAN_MOTION_DDOT":0}]
